[{"OBJECT_NAME":"STARLINK-5485","OBJECT_ID":"2023-094AV","EPOCH":"2026-03-09T22:00:01.999584","MEAN_MOTION":15.14639465,"ECCENTRICITY":0.00016836,"INCLINATION":43.001,"RA_OF_ASC_NODE":28.4084,"ARG_OF_PERICENTER":253.972,"MEAN_ANOMALY":53.3121,"EPHEMERIS_TYPE":0,"CLASSIFICATION_TYPE":"U","NORAD_CAT_ID":57261,"ELEMENT_SET_NO":999,"REV_AT_EPOCH":577,"BSTAR":0.0044032265,"MEAN_MOTION_DOT":0.000836,"MEAN_MOTION_DDOT":0},{"OBJECT_NAME":"NUSAT-52","OBJECT_ID":"2025-276AC","EPOCH":"2026-03-09T18:06:03.254976","MEAN_MOTION":15.18602485,"ECCENTRICITY":0.0003268,"INCLINATION":97.4277,"RA_OF_ASC_NODE":144.0115,"ARG_OF_PERICENTER":28.4269,"MEAN_ANOMALY":331.7143,"EPHEMERIS_TYPE":0,"CLASSIFICATION_TYPE":"U","NORAD_CAT_ID":66692,"ELEMENT_SET_NO":999,"REV_AT_EPOCH":1532,"BSTAR":0.00037392998,"MEAN_MOTION_DOT":7.671e-5,"MEAN_MOTION_DDOT":0}]
